{
    "links": {
        "self": "http://www.neowsapp.com/rest/v1/neo/3741554?api_key=iIulBulltgU6a56xZRHN4H3l9WmuAYTsLGpBGhQ2"
    },
    "id": "3741554",
    "neo_reference_id": "3741554",
    "name": "(2016 CE29)",
    "designation": "2016 CE29",
    "nasa_jpl_url": "http://ssd.jpl.nasa.gov/sbdb.cgi?sstr=3741554",
    "absolute_magnitude_h": 23.4,
    "estimated_diameter": {
        "kilometers": {
            "estimated_diameter_min": 0.0555334912,
            "estimated_diameter_max": 0.1241766613
        },
        "meters": {
            "estimated_diameter_min": 55.5334911581,
            "estimated_diameter_max": 124.1766612574
        },
        "miles": {
            "estimated_diameter_min": 0.0345069009,
            "estimated_diameter_max": 0.0771597762
        },
        "feet": {
            "estimated_diameter_min": 182.1964991311,
            "estimated_diameter_max": 407.4037573197
        }
    },
    "is_potentially_hazardous_asteroid": false,
    "close_approach_data": [
        {
            "close_approach_date": "1908-07-05",
            "close_approach_date_full": "1908-Jul-05 13:42",
            "epoch_date_close_approach": -1940494680000,
            "relative_velocity": {
                "kilometers_per_second": "20.7243080682",
                "kilometers_per_hour": "74607.5090456233",
                "miles_per_hour": "46358.2047178208"
            },
            "miss_distance": {
                "astronomical": "0.0708381488",
                "lunar": "27.5560398832",
                "kilometers": "10597236.175223056",
                "miles": "6584817.2172519328"
            },
            "orbiting_body": "Earth"
        },
        {
            "close_approach_date": "2016-01-15",
            "close_approach_date_full": "2016-Jan-15 18:39",
            "epoch_date_close_approach": 1452883140000,
            "relative_velocity": {
                "kilometers_per_second": "21.4605721347",
                "kilometers_per_hour": "77258.0596848257",
                "miles_per_hour": "48005.1538080518"
            },
            "miss_distance": {
                "astronomical": "0.0618677253",
                "lunar": "24.0665451417",
                "kilometers": "9255279.926625111",
                "miles": "5750964.2706480918"
            },
            "orbiting_body": "Earth"
        }
    ],
    "orbital_data": {
        "orbit_id": "4",
        "orbit_determination_date": "2017-04-06 08:28:44",
        "first_observation_date": "2016-02-03",
        "last_observation_date": "2016-02-07",
        "data_arc_in_days": 4,
        "observations_used": 21,
        "orbit_uncertainty": "9",
        "minimum_orbit_intersection": ".024159",
        "jupiter_tisserand_invariant": "3.568",
        "epoch_osculation": "2457423.5",
        "eccentricity": ".7263304792922274",
        "semi_major_axis": "1.898182895602989",
        "inclination": "4.929972958485457",
        "ascending_node_longitude": "85.15350482686429",
        "orbital_period": "955.2246264590864",
        "perihelion_distance": ".5194748032553619",
        "perihelion_argument": "295.506037524297",
        "aphelion_distance": "3.276890987950615",
        "perihelion_time": "2457357.625095153077",
        "mean_anomaly": "24.82658537898156",
        "mean_motion": ".3768747057270506",
        "equinox": "J2000",
        "orbit_class": {
            "orbit_class_type": "APO",
            "orbit_class_description": "Near-Earth asteroid orbits which cross the Earth’s orbit similar to that of 1862 Apollo",
            "orbit_class_range": "a (semi-major axis) > 1.0 AU; q (perihelion) < 1.017 AU"
        }
    },
    "is_sentry_object": false
}